C/2019 N1 (ATLAS),e,82.5578,13.4991,193.3400,948.4316,0.0000337,0.99820456,0.0000,11/30.4511/2020,2000,g  7.5,4.0
# From MPEC 2023-CD8
A/2019 N2,e,89.3183,276.2276,347.0432,1078,0.0000278,0.99820187,0.0000,08/22.3697/2019,2000,g 12.5,2.0
# From MPEC 2022-A21
C/2019 NJ3 (Lemmon),h,10/22.0199/2020,99.3230,142.4931,246.8650,1.001257,4.362932,2000,9.0,4.0
# From MPC185656
C/2019 O2 (PANSTARRS),e,93.2937,48.2644,129.5683,58.80822,0.0021855,0.83538898,2.0238,10/18.0/2025,2000,g  5.0,4.0
# From MPC182878
C/2019 O3 (Palomar),h,03/08.0033/2021,89.7927,300.4809,60.0895,1.002282,8.820471,2000,3.5,4.0
# From MPEC 2021-P47
A/2019 O4,e,114.9869,354.9244,61.8103,33.20728,0.0051506,0.89034389,10.6921,10/18.0/2025,2000,g 15.5,2.0
# From MPEC 2024-EF7
C/2019 Q1 (Lemmon),h,07/22.3818/2020,155.7168,42.4708,56.2500,1.002495,5.001384,2000,8.5,4.0
# From MPC117072
A/2019 Q2,e,158.9590,188.1471,176.5173,58.84134,0.0021836,0.97859397,0.0000,07/23.9768/2019,2000,g 18.0,2.0
# From MPC117072
P/2019 S2 (PANSTARRS),e,10.4636,93.1793,216.8916,4.747884,0.0952695,0.20466589,232.1481,10/18.0/2025,2000,g 13.5,4.0
# From MPEC 2022-CN4
P/2019 S3 (PANSTARRS),e,8.6944,150.1399,213.1014,3.413882,0.1562540,0.47067011,350.2841,10/18.0/2025,2000,g 18.3,4.0
# From MPEC 2021-S45
C/2019 S4 (Lemmon),e,92.0868,63.1536,71.3686,250.6574,0.0002484,0.98628272,0.0000,04/09.6351/2020,2000,g 11.0,4.0
# From MPEC 2023-N01
A/2019 T1,e,120.8089,6.9243,90.9643,38.71728,0.0040912,0.88961647,7.1069,10/18.0/2025,2000,g 13.0,2.0
# From MPEC 2023-R20
C/2019 T2 (Lemmon),e,111.3551,155.6529,239.3763,3046,0.0000059,0.99913229,0.0000,04/22.4055/2021,2000,g  9.0,4.0
# From MPEC 2023-UR6
C/2019 T3 (ATLAS),e,121.8821,139.5474,112.4929,5228,0.0000026,0.99886137,0.0000,03/04.8793/2021,2000,g  6.8,4.0
# From MPC188408
C/2019 T4 (ATLAS),e,53.6244,199.8902,351.1087,884.4867,0.0000375,0.99520977,0.0000,06/08.6955/2022,2000,g  5.0,4.0
# From MPEC 2021-P47
P/2019 T5 (ATLAS),e,33.4876,247.6139,189.6342,8.009130,0.0434837,0.80972888,98.5947,10/18.0/2025,2000,g 15.0,4.0
# From MPEC 2021-P47
P/2019 T6 (PANSTARRS),e,18.6972,71.2507,329.0634,5.443516,0.0776041,0.62228494,168.4210,10/18.0/2025,2000,g 15.5,4.0
# From MPC118096
P/2019 U4 (PANSTARRS),e,11.6955,199.9972,181.0930,3.518350,0.1493466,0.47568157,331.2439,10/18.0/2025,2000,g 19.0,4.0
# From MPC188408
C/2019 U5 (PANSTARRS),h,03/29.3617/2023,113.5135,2.6046,181.4453,1.000033,3.624490,2000,4.5,4.0
# From MPEC 2022-H04
C/2019 U6 (Lemmon),e,60.9980,235.7289,329.4196,301.3584,0.0001884,0.99699583,0.0000,06/18.3698/2020,2000,g 10.0,4.0
# From MPEC 2022-N37
C/2019 V1 (Borisov),e,61.9463,83.1483,51.2011,2968,0.0000061,0.99895780,0.0000,07/17.7955/2020,2000,g 11.0,4.0
# From MPEC 2022-L66
P/2019 V2 (Groeller),e,11.8073,189.1266,335.6419,7.494830,0.0480354,0.33201756,87.7343,10/18.0/2025,2000,g 10.0,4.0
# From MPEC 2023-A50
P/2019 W1 (PANSTARRS),e,23.4648,35.3556,18.9117,4.548406,0.1016051,0.26714197,238.8324,10/18.0/2025,2000,g 12.9,4.0
# From MPEC 2021-P47
P/2019 X1 (Pruyne),e,10.2442,43.6746,37.0226,6.180323,0.0641486,0.30373981,146.0696,10/18.0/2025,2000,g 10.4,4.0
# From MPEC 2020-C98
P/2019 X2 (Pan-STARRS),e,15.8947,250.8270,213.5353,3.633581,0.1422990,0.50050760,304.0343,10/18.0/2025,2000,g 18.0,4.0
# From MPC119999
C/2019 Y1 (ATLAS),e,73.2467,31.4551,57.9217,88.34966,0.0011869,0.99064802,0.0000,03/17.3383/2020,2000,g 13.7,4.0
# From MPEC 2024-A43
C/2019 Y4 (ATLAS),e,44.9049,120.8040,177.4004,325.0072,0.0001682,0.99920822,0.0000,05/29.3867/2020,2000,g 11.8,6.0
# From MPEC 2020-L06
C/2019 Y4-A (ATLAS),h,05/29.4464/2020,45.3385,121.1725,177.2321,1.001351,0.255485,2000,11.9,6.0
# From MPEC 2025-CE3
C/2019 Y4-B (ATLAS),e,44.9860,120.8674,177.3594,1269,0.0000218,0.99979742,0.0000,05/29.3969/2020,2000,g 12.1,6.0
# From MPEC 2020-L06
C/2019 Y4-C (ATLAS),h,05/29.4016/2020,45.1226,120.8999,177.2647,1.002079,0.256555,2000,12.3,6.0
# From MPEC 2020-L06
C/2019 Y4-D (ATLAS),e,45.1765,121.2601,177.4089,67.07994,0.0017940,0.99618528,0.0000,05/29.4727/2020,2000,g 13.8,6.0
# From MPEC 2023-A50
C/2019 Y5 (PANSTARRS),e,82.7804,51.7754,303.6775,681.7054,0.0000554,0.99275952,0.0000,08/16.3402/2019,2000,g 11.0,4.0
# From MPEC 2023-A50
A/2020 A1,e,149.0315,119.0495,302.4047,25.45789,0.0076731,0.93427090,16.4906,10/18.0/2025,2000,g 18.0,2.0
# From MPEC 2022-YN2
C/2020 A2 (Iwamoto),e,120.4968,286.1806,68.0166,929.4127,0.0000348,0.99894987,0.0000,01/06.7800/2020,2000,g 13.5,4.0
# From MPEC 2023-A50
C/2020 A3 (ATLAS),e,146.6165,120.7967,268.2237,3992,0.0000039,0.99855876,0.0000,06/26.4121/2019,2000,g  8.0,4.0
# From MPEC 2022-P91
P/2020 A4 (PANSTARRS-Lemmon),e,25.0051,312.2694,144.9310,8.204534,0.0419395,0.65444874,90.3530,10/18.0/2025,2000,g 15.0,4.0
# From MPEC 2020-N08
A/2020 B1,e,18.5438,309.7842,154.9102,52.19405,0.0026138,0.96666547,5.5444,10/18.0/2025,2000,g 21.0,2.0
# From MPEC 2020-HN5
C/2020 B2 (Lemmon),e,55.7569,354.1537,143.6453,67.98553,0.0017582,0.95946135,3.6757,10/18.0/2025,2000,g 10.0,4.0
# From MPEC 2022-N37
C/2020 B3 (Rankin),e,20.7068,185.7239,324.9530,1089,0.0000274,0.99694400,0.0000,10/21.0539/2019,2000,g 13.0,4.0
# From MPEC 2023-KD6
P/2020 B4 (Sheppard),e,11.6022,185.9405,342.0853,7.974731,0.0437653,0.19305037,62.5015,10/18.0/2025,2000,g 10.5,4.0
# From MPC186629
C/2020 F2 (ATLAS),h,07/12.2157/2022,163.5898,250.2985,48.2278,1.002098,8.813518,2000,4.5,4.0
# From MPEC 2021-O56
C/2020 F3 (NEOWISE),e,129.0879,61.0631,37.3282,406.3555,0.0001203,0.99927899,0.0000,07/05.1381/2020,2000,g  7.5,5.2
# From MPEC 2024-UQ8
C/2020 F5 (MASTER),e,52.2381,350.5537,310.5958,163.1230,0.0004731,0.97348319,0.0000,03/16.0071/2021,2000,g  6.5,3.2
# From MPEC 2020-L06
C/2020 F6 (PANSTARRS),e,174.5846,207.8254,344.3066,335.2990,0.0001605,0.98956754,0.0000,04/09.9909/2020,2000,g 14.5,2.8
# From MPEC 2024-A43
C/2020 F7 (Lemmon),e,93.9890,321.8164,227.9949,580.1772,0.0000705,0.99080343,0.0000,11/13.9943/2021,2000,g  7.0,4.0
# From MPEC 2023-J29
C/2020 F8 (SWAN),h,05/25.5643/2020,110.5630,259.8109,68.1286,1.000053,0.433478,2000,10.0,4.0
# From MPEC 2020-L06
P/2020 G1 (Pimentel),e,18.5051,240.0918,207.6591,3.606126,0.1439271,0.86082214,293.3191,10/18.0/2025,2000,g 17.0,4.0
# From MPEC 2022-YB4
C/2020 H2 (Pruyne),e,124.7732,277.6714,26.5777,175.3902,0.0004243,0.99527674,0.0000,04/26.6125/2020,2000,g 14.0,3.2
# From MPEC 2020-HM1
C/2020 H3 (Wierzchos),p,06/05.7162/2020,62.5292,30.4456,2.300288,270.6227,2000,13.0,4.0
# From MPEC 2020-L06
C/2020 H4 (Leonard),e,84.4951,307.4304,117.5956,47.86423,0.0029764,0.98060075,0.0000,08/29.0973/2020,2000,g 15.0,3.2
# From MPC184409
C/2020 H5 (Robinson),e,70.2213,210.6095,326.2630,6448,0.0000019,0.99855231,0.0000,12/09.9916/2020,2000,g  5.0,4.0
# From MPEC 2024-JU4
C/2020 H6 (ATLAS),e,79.9940,213.6826,20.1813,1862,0.0000123,0.99747727,0.0000,09/29.4530/2021,2000,g  8.0,3.2
# From MPEC 2020-KB7
C/2020 H7 (Lemmon),e,135.9235,323.5194,82.6780,1405,0.0000187,0.99685380,0.0000,06/02.9510/2020,2000,g 11.0,4.0
# From MPEC 2021-N06
C/2020 H8 (PANSTARRS),e,99.6999,68.4337,128.7978,587.0048,0.0000693,0.99205930,0.0000,06/04.8597/2020,2000,g 10.5,4.0
# From MPEC 2022-ED3
A/2020 H9,e,137.8726,213.0991,312.5854,336.7431,0.0001595,0.99239557,0.0000,12/21.6742/2019,2000,g 18.0,2.0
# From MPEC 2023-HN7
C/2020 H11 (PANSTARRS-Lemmon),e,151.3705,303.0580,91.3552,11184,0.0000008,0.99931862,0.0000,09/12.1032/2020,2000,g  8.5,4.0
# From MPEC 2023-KD6
C/2020 J1 (SONEAR),e,142.3083,226.5758,341.5532,6311,0.0000020,0.99947007,0.0000,04/17.8569/2021,2000,g  8.5,3.2
# From MPC184409
C/2020 K1 (PANSTARRS),e,89.6702,94.3675,213.9653,2041,0.0000107,0.99849411,0.0000,05/08.6094/2023,2000,g  5.5,4.0
# From MPEC 2021-N06
C/2020 K2 (PANSTARRS),h,08/03.9608/2020,90.9859,288.4363,67.3003,1.000515,8.880238,2000,6.5,4.0
# From MPEC 2020-KF9
C/2020 K3 (Leonard),p,06/01.0032/2020,129.0152,64.4924,1.583069,28.3546,2000,14.5,4.0
# From MPEC 2020-L06
C/2020 K4 (PANSTARRS),e,125.5851,264.2723,308.7600,23.91040,0.0084299,0.92713478,17.3057,10/18.0/2025,2000,g 16.5,4.0
# From MPEC 2021-R75
C/2020 K5 (PANSTARRS),h,06/03.9818/2021,67.0690,86.1420,249.6445,1.000727,1.541387,2000,11.0,4.0
# From MPEC 2023-N01
C/2020 K6 (Rankin),h,09/14.4419/2021,103.6278,291.6025,44.2637,1.001788,5.865531,2000,8.0,4.0
# From MPEC 2023-A50
C/2020 K7 (PANSTARRS),e,32.0442,286.1355,358.0495,94.20118,0.0010780,0.93220669,2.3555,10/18.0/2025,2000,g  8.0,4.0
# From MPEC 2021-P47
C/2020 K8 (Catalina-ATLAS),h,09/15.8017/2020,31.3654,181.2479,260.2177,1.000336,0.471901,2000,15.0,3.2
# From MPEC 2021-BE3
P/2020 K9 (Lemmon-PANSTARRS),e,23.1877,166.3082,197.0844,4.207867,0.1141855,0.31997607,195.2865,10/18.0/2025,2000,g 12.5,4.0
# From MPEC 2023-C45
P/2020 M1 (PANSTARRS),e,8.5349,142.6205,72.4696,5.310933,0.0805282,0.47374260,171.1789,10/18.0/2025,2000,g 14.5,4.0
# From MPEC 2022-H30
C/2020 M3 (ATLAS),e,23.4684,71.1852,328.6813,27.31821,0.0069028,0.95326996,12.5520,10/18.0/2025,2000,g 14.5,4.0
# From MPEC 2023-N01
A/2020 M4,e,160.0986,348.6106,104.4560,10441,0.0000009,0.99943111,0.0000,11/22.4562/2020,2000,g 14.5,2.0
# From MPEC 2024-NE4
P/2020 MK4 (PANSTARRS),e,6.7810,0.6591,93.9998,6.225192,0.0634563,0.01539189,324.8448,10/18.0/2025,2000,g  8.0,4.0
# From MPEC 2023-FK0
C/2020 M5 (ATLAS),h,08/19.6927/2021,93.1666,352.0036,126.2449,1.000086,3.000081,2000,9.0,4.0
# From MPEC 2022-GA9
C/2020 N1 (PANSTARRS),h,03/13.2597/2021,29.7688,279.8537,186.8502,1.000924,1.318057,2000,12.5,4.0
# From MPEC 2021-P47
C/2020 N2 (ATLAS),e,161.0394,257.1744,331.1747,100.8836,0.0009727,0.98233116,0.0000,08/24.2731/2020,2000,g 16.0,3.2
# From MPEC 2024-JU4
C/2020 O2 (Amaral),e,71.7632,256.7885,10.1520,7540,0.0000015,0.99935611,0.0000,08/27.0838/2021,2000,g  8.0,3.2
# From MPEC 2023-C45
P/2020 O3 (PANSTARRS),e,8.4444,266.8164,81.1263,4.646110,0.0984169,0.10239163,170.0567,10/18.0/2025,2000,g 12.0,4.0
# From MPEC 2021-BE3
C/2020 P1 (NEOWISE),h,10/21.2915/2020,45.0824,53.4937,8.9421,1.000450,0.342240,2000,14.0,3.2
# From MPEC 2024-JU4
C/2020 P3 (ATLAS),h,04/23.0966/2021,61.8461,19.4872,82.3608,1.003855,6.816983,2000,6.0,4.0
